{"type": "FeatureCollection", "features": [ {"type": "Feature", "properties": {"norad_id": 37686, "name": "FENGYUN 1C DEB", "group": "fengyun-1c-debris", "lat": 22.58483495452325, "lon": -176.73543144842782, "alt_km": 1160.018351454286, "timestamp": "2025-12-06T07:31:40.526280+00:00", "meta": {"OBJECT_NAME": "FENGYUN 1C DEB", "OBJECT_ID": "1999-025ELB", "EPOCH": "2025-12-02T07:33:22.437792", "MEAN_MOTION": 13.35350269, "ECCENTRICITY": 0.0396452, "INCLINATION": 99.0209, "RA_OF_ASC_NODE": 355.9344, "ARG_OF_PERICENTER": 68.1356, "MEAN_ANOMALY": 310.8807, "EPHEMERIS_TYPE": 0, "CLASSIFICATION_TYPE": "U", "NORAD_CAT_ID": 37686, "ELEMENT_SET_NO": 999, "REV_AT_EPOCH": 60488, "BSTAR": 0.0007759, "MEAN_MOTION_DOT": 5.81e-06, "MEAN_MOTION_DDOT": 0}, "tle": {"line1": "1 37686U 99025ELB 25336.31484303  .00000581  00000+0  77590-3 0  9994", "line2": "2 37686  99.0209 355.9344 0396452  68.1356 310.8807 13.35350269604882"}}, "geometry": {"type": "Point", "coordinates": [-176.73543144842782, 22.58483495452325]}}, {"type": "Feature", "properties": {"norad_id": 37687, "name": "FENGYUN 1C DEB", "group": "fengyun-1c-debris", "lat": 45.73702486877877, "lon": -155.2544364367823, "alt_km": 1045.1658284584391, "timestamp": "2025-12-06T07:31:40.526291+00:00", "meta": {"OBJECT_NAME": "FENGYUN 1C DEB", "OBJECT_ID": "1999-025ELC", "EPOCH": "2025-12-04T22:31:35.154912", "MEAN_MOTION": 13.8519089, "ECCENTRICITY": 0.0333745, "INCLINATION": 98.2045, "RA_OF_ASC_NODE": 15.0265, "ARG_OF_PERICENTER": 20.5325, "MEAN_ANOMALY": 96.3024, "EPHEMERIS_TYPE": 0, "CLASSIFICATION_TYPE": "U", "NORAD_CAT_ID": 37687, "ELEMENT_SET_NO": 999, "REV_AT_EPOCH": 83146, "BSTAR": 0.0074014, "MEAN_MOTION_DOT": 0.00012954, "MEAN_MOTION_DDOT": 0}, "tle": {"line1": "1 37687U 99025ELC 25338.93860133  .00012954  00000+0  74014-2 0  9998", "line2": "2 37687  98.2045  15.0265 0333745  20.5325  96.3024 13.85190890831462"}}, "geometry": {"type": "Point", "coordinates": [-155.2544364367823, 45.73702486877877]}}, {"type": "Feature", "properties": {"norad_id": 37689, "name": "FENGYUN 1C DEB", "group": "fengyun-1c-debris", "lat": 44.698630984725355, "lon": -150.179487036333, "alt_km": 735.1346669724026, "timestamp": "2025-12-06T07:31:40.526301+00:00", "meta": {"OBJECT_NAME": "FENGYUN 1C DEB", "OBJECT_ID": "1999-025ELE", "EPOCH": "2025-12-02T01:46:11.045280", "MEAN_MOTION": 14.4832477, "ECCENTRICITY": 0.0020133, "INCLINATION": 98.9212, "RA_OF_ASC_NODE": 16.4041, "ARG_OF_PERICENTER": 272.0566, "MEAN_ANOMALY": 87.832, "EPHEMERIS_TYPE": 0, "CLASSIFICATION_TYPE": "U", "NORAD_CAT_ID": 37689, "ELEMENT_SET_NO": 999, "REV_AT_EPOCH": 57658, "BSTAR": 0.002876697, "MEAN_MOTION_DOT": 0.0001075, "MEAN_MOTION_DDOT": 0}, "tle": {"line1": "1 37689U 99025ELE 25336.07373895  .00010750  00000+0  28767-2 0  9993", "line2": "2 37689  98.9212  16.4041 0020133 272.0566  87.8320 14.48324770576588"}}, "geometry": {"type": "Point", "coordinates": [-150.179487036333, 44.698630984725355]}}, {"type": "Feature", "properties": {"norad_id": 37691, "name": "FENGYUN 1C DEB", "group": "fengyun-1c-debris", "lat": 18.38224908285326, "lon": -118.85555016116336, "alt_km": 875.1380793096387, "timestamp": "2025-12-06T07:31:40.526311+00:00", "meta": {"OBJECT_NAME": "FENGYUN 1C DEB", "OBJECT_ID": "1999-025ELG", "EPOCH": "2025-12-02T12:48:10.382400", "MEAN_MOTION": 14.57224075, "ECCENTRICITY": 0.02811336, "INCLINATION": 98.3724, "RA_OF_ASC_NODE": 240.144, "ARG_OF_PERICENTER": 181.7036, "MEAN_ANOMALY": 178.3233, "EPHEMERIS_TYPE": 0, "CLASSIFICATION_TYPE": "U", "NORAD_CAT_ID": 37691, "ELEMENT_SET_NO": 999, "REV_AT_EPOCH": 85485, "BSTAR": 0.0023223094, "MEAN_MOTION_DOT": 0.00018087, "MEAN_MOTION_DDOT": 0}, "tle": {"line1": "1 37691U 99025ELG 25336.53345350  .00018087  00000+0  23223-2 0  9995", "line2": "2 37691  98.3724 240.1440 0281133 181.7036 178.3233 14.57224075854854"}}, "geometry": {"type": "Point", "coordinates": [-118.85555016116336, 18.38224908285326]}}, {"type": "Feature", "properties": {"norad_id": 37693, "name": "FENGYUN 1C DEB", "group": "fengyun-1c-debris", "lat": 37.355139398472616, "lon": 167.0459520744333, "alt_km": 827.4843159841075, "timestamp": "2025-12-06T07:31:40.526321+00:00", "meta": {"OBJECT_NAME": "FENGYUN 1C DEB", "OBJECT_ID": "1999-025ELJ", "EPOCH": "2025-12-03T18:19:20.162784", "MEAN_MOTION": 14.08453201, "ECCENTRICITY": 0.00726646, "INCLINATION": 98.6921, "RA_OF_ASC_NODE": 337.8827, "ARG_OF_PERICENTER": 99.7561, "MEAN_ANOMALY": 78.0467, "EPHEMERIS_TYPE": 0, "CLASSIFICATION_TYPE": "U", "NORAD_CAT_ID": 37693, "ELEMENT_SET_NO": 999, "REV_AT_EPOCH": 62022, "BSTAR": 0.00073098052, "MEAN_MOTION_DOT": 1.243e-05, "MEAN_MOTION_DDOT": 0}, "tle": {"line1": "1 37693U 99025ELJ 25337.76342781  .00001243  00000+0  73098-3 0  9990", "line2": "2 37693  98.6921 337.8827 0072664  99.7561  78.0467 14.08453201620227"}}, "geometry": {"type": "Point", "coordinates": [167.0459520744333, 37.355139398472616]}}, {"type": "Feature", "properties": {"norad_id": 37694, "name": "FENGYUN 1C DEB", "group": "fengyun-1c-debris", "lat": 40.97263812649133, "lon": 41.23313817756906, "alt_km": 795.9482249190423, "timestamp": "2025-12-06T07:31:40.526332+00:00", "meta": {"OBJECT_NAME": "FENGYUN 1C DEB", "OBJECT_ID": "1999-025ELK", "EPOCH": "2025-11-23T11:03:37.255104", "MEAN_MOTION": 14.16434986, "ECCENTRICITY": 0.01492409, "INCLINATION": 98.199, "RA_OF_ASC_NODE": 36.5782, "ARG_OF_PERICENTER": 149.1235, "MEAN_ANOMALY": 270.2915, "EPHEMERIS_TYPE": 0, "CLASSIFICATION_TYPE": "U", "NORAD_CAT_ID": 37694, "ELEMENT_SET_NO": 999, "REV_AT_EPOCH": 51431, "BSTAR": 0.0018793287, "MEAN_MOTION_DOT": 4.13e-05, "MEAN_MOTION_DDOT": 0}, "tle": {"line1": "1 37694U 99025ELK 25327.46084786  .00004130  00000+0  18793-2 0  9993", "line2": "2 37694  98.1990  36.5782 0149240 149.1235 270.2915 14.16434986514319"}}, "geometry": {"type": "Point", "coordinates": [41.23313817756906, 40.97263812649133]}}, {"type": "Feature", "properties": {"norad_id": 37695, "name": "FENGYUN 1C DEB", "group": "fengyun-1c-debris", "lat": 62.21229028575823, "lon": 8.692548754735357, "alt_km": 1288.3407579321229, "timestamp": "2025-12-06T07:31:40.526342+00:00", "meta": {"OBJECT_NAME": "FENGYUN 1C DEB", "OBJECT_ID": "1999-025ELL", "EPOCH": "2025-11-12T09:45:41.390784", "MEAN_MOTION": 13.64847867, "ECCENTRICITY": 0.04648499, "INCLINATION": 98.2183, "RA_OF_ASC_NODE": 4.2705, "ARG_OF_PERICENTER": 342.0154, "MEAN_ANOMALY": 28.6211, "EPHEMERIS_TYPE": 0, "CLASSIFICATION_TYPE": "U", "NORAD_CAT_ID": 37695, "ELEMENT_SET_NO": 999, "REV_AT_EPOCH": 88838, "BSTAR": 0.0022999386, "MEAN_MOTION_DOT": 3.857e-05, "MEAN_MOTION_DDOT": 0}, "tle": {"line1": "1 37695U 99025ELL 25316.40672906  .00003857  00000+0  22999-2 0  9991", "line2": "2 37695  98.2183   4.2705 0464849 342.0154  28.6211 13.64847867888384"}}, "geometry": {"type": "Point", "coordinates": [8.692548754735357, 62.21229028575823]}}, {"type": "Feature", "properties": {"norad_id": 37704, "name": "FENGYUN 1C DEB", "group": "fengyun-1c-debris", "lat": -78.51703318921338, "lon": -51.777386791356726, "alt_km": 928.4269368456999, "timestamp": "2025-12-06T07:31:40.526352+00:00", "meta": {"OBJECT_NAME": "FENGYUN 1C DEB", "OBJECT_ID": "1999-025ELV", "EPOCH": "2025-11-13T18:53:12.256224", "MEAN_MOTION": 13.70394507, "ECCENTRICITY": 0.02407203, "INCLINATION": 98.3154, "RA_OF_ASC_NODE": 154.7598, "ARG_OF_PERICENTER": 256.7939, "MEAN_ANOMALY": 163.8462, "EPHEMERIS_TYPE": 0, "CLASSIFICATION_TYPE": "U", "NORAD_CAT_ID": 37704, "ELEMENT_SET_NO": 999, "REV_AT_EPOCH": 61968, "BSTAR": 0.0028357246, "MEAN_MOTION_DOT": 3.039e-05, "MEAN_MOTION_DDOT": 0}, "tle": {"line1": "1 37704U 99025ELV 25317.78694741  .00003039  00000+0  28357-2 0  9991", "line2": "2 37704  98.3154 154.7598 0240720 256.7939 163.8462 13.70394507619687"}}, "geometry": {"type": "Point", "coordinates": [-51.777386791356726, -78.51703318921338]}}, {"type": "Feature", "properties": {"norad_id": 37707, "name": "FENGYUN 1C DEB", "group": "fengyun-1c-debris", "lat": 4.977645020253751, "lon": 163.76235239842765, "alt_km": 772.5346746168925, "timestamp": "2025-12-06T07:31:40.526362+00:00", "meta": {"OBJECT_NAME": "FENGYUN 1C DEB", "OBJECT_ID": "1999-025ELY", "EPOCH": "2025-11-27T05:20:57.252768", "MEAN_MOTION": 14.56289671, "ECCENTRICITY": 0.01442237, "INCLINATION": 100.2205, "RA_OF_ASC_NODE": 331.7391, "ARG_OF_PERICENTER": 70.8606, "MEAN_ANOMALY": 348.4248, "EPHEMERIS_TYPE": 0, "CLASSIFICATION_TYPE": "U", "NORAD_CAT_ID": 37707, "ELEMENT_SET_NO": 999, "REV_AT_EPOCH": 85340, "BSTAR": 0.0006683793, "MEAN_MOTION_DOT": 3.335e-05, "MEAN_MOTION_DDOT": 0}, "tle": {"line1": "1 37707U 99025ELY 25331.22288487  .00003335  00000+0  66838-3 0  9991", "line2": "2 37707 100.2205 331.7391 0144223  70.8606 348.4248 14.56289671853408"}}, "geometry": {"type": "Point", "coordinates": [163.76235239842765, 4.977645020253751]}}, {"type": "Feature", "properties": {"norad_id": 37712, "name": "FENGYUN 1C DEB", "group": "fengyun-1c-debris", "lat": 52.62558484751077, "lon": -49.099738047243996, "alt_km": 788.0996159307015, "timestamp": "2025-12-06T07:31:40.526373+00:00", "meta": {"OBJECT_NAME": "FENGYUN 1C DEB", "OBJECT_ID": "1999-025EMD", "EPOCH": "2025-11-27T15:41:44.019744", "MEAN_MOTION": 14.36373933, "ECCENTRICITY": 0.00799447, "INCLINATION": 98.8184, "RA_OF_ASC_NODE": 110.3124, "ARG_OF_PERICENTER": 38.1802, "MEAN_ANOMALY": 333.7876, "EPHEMERIS_TYPE": 0, "CLASSIFICATION_TYPE": "U", "NORAD_CAT_ID": 37712, "ELEMENT_SET_NO": 999, "REV_AT_EPOCH": 63744, "BSTAR": 0.00047161724, "MEAN_MOTION_DOT": 1.385e-05, "MEAN_MOTION_DDOT": 0}, "tle": {"line1": "1 37712U 99025EMD 25331.65398171  .00001385  00000+0  47162-3 0  9998", "line2": "2 37712  98.8184 110.3124 0079944  38.1802 333.7876 14.36373933637440"}}, "geometry": {"type": "Point", "coordinates": [-49.099738047243996, 52.62558484751077]}}]}